NORAD_CAT_ID,OBJECT_NAME,OBJECT_TYPE,EPOCH,MEAN_MOTION,ECCENTRICITY,INCLINATION,RA_OF_ASC_NODE,ARG_OF_PERICENTER,MEAN_ANOMALY,BSTAR,MEAN_MOTION_DOT,MEAN_MOTION_DDOT,TLE_LINE0,TLE_LINE1,TLE_LINE2,SEMIMAJOR_AXIS,PERIOD,APOGEE,PERIGEE,DECAYED
52288.0,STARLINK-3776,PAYLOAD,2023-09-21 03:56:39,15.08835361,0.000142,53.2154,181.7355,88.0463,272.0692,0.00030639,4.591e-05,0.0,0 STARLINK-3776,1 52288U 22041AD  23264.16435004  .00004591  00000-0  30639-3 0  9997,2 52288  53.2154 181.7355 0001420  88.0463 272.0692 15.08835361 78556,6917.895,95.438,540.742,538.777,0.0
52288.0,STARLINK-3776,PAYLOAD,2023-09-21 18:15:08,15.08825436,0.0001421,53.2148,179.0614,89.7972,270.3183,0.00037391,5.665e-05,0.0,0 STARLINK-3776,1 52288U 22041AD  23264.76051911  .00005665  00000-0  37391-3 0  9999,2 52288  53.2148 179.0614 0001421  89.7972 270.3183 15.08825436 78649,6917.925,95.438,540.773,538.807,0.0
52288.0,STARLINK-3776,PAYLOAD,2023-09-22 03:47:27,15.08839653,0.0001424,53.2155,177.2746,90.1473,269.9682,0.00042578,6.495e-05,0.0,0 STARLINK-3776,1 52288U 22041AD  23265.15795834  .00006495  00000-0  42578-3 0  9997,2 52288  53.2155 177.2746 0001424  90.1473 269.9682 15.08839653 79924,6917.881,95.438,540.732,538.761,0.0
52288.0,STARLINK-3776,PAYLOAD,2023-09-22 21:16:42,15.08850842,0.0001443,53.2156,174.0032,94.1561,265.9596,0.00061263,9.478e-05,0.0,0 STARLINK-3776,1 52288U 22041AD  23265.88659759  .00009478  00000-0  61263-3 0  9998,2 52288  53.2156 174.0032 0001443  94.1561 265.9596 15.08850842 78811,6917.847,95.437,540.71,538.714,0.0
52288.0,STARLINK-3776,PAYLOAD,2023-09-23 00:27:28,15.08860011,0.0001537,53.216,173.4087,95.977,264.1397,0.0008307,0.00012965,0.0,0 STARLINK-3776,1 52288U 22041AD  23266.01907528  .00012965  00000-0  83070-3 0  9999,2 52288  53.2160 173.4087 0001537  95.9770 264.1397 15.08860011 80052,6917.819,95.436,540.747,538.621,0.0
52288.0,STARLINK-3776,PAYLOAD,2023-09-23 17:56:42,15.08848752,0.0001516,53.2157,170.1367,77.5773,282.5389,0.0003372,5.084e-05,0.0,0 STARLINK-3776,1 52288U 22041AD  23266.74771541  .00005084  00000-0  33720-3 0  9994,2 52288  53.2157 170.1367 0001516  77.5773 282.5389 15.08848752 80164,6917.854,95.437,540.767,538.67,0.0
52288.0,STARLINK-3776,PAYLOAD,2023-09-24 00:18:14,15.08849845,0.0001267,53.2158,168.9468,91.2649,268.8488,0.00026513,3.935e-05,0.0,0 STARLINK-3776,1 52288U 22041AD  23267.01267318  .00003935  00000-0  26513-3 0  9992,2 52288  53.2158 168.9468 0001267  91.2649 268.8488 15.08849845 78988,6917.85,95.437,540.592,538.839,0.0
52288.0,STARLINK-3776,PAYLOAD,2023-09-24 17:47:29,15.08841988,0.0001258,53.2157,165.6766,94.4129,265.7007,7.2993e-05,8.74e-06,0.0,0 STARLINK-3776,1 52288U 22041AD  23267.74131482  .00000874  00000-0  72993-4 0  9997,2 52288  53.2157 165.6766 0001258  94.4129 265.7007 15.08841988 80313,6917.874,95.437,540.61,538.869,0.0
52288.0,STARLINK-3776,PAYLOAD,2023-09-24 22:33:39,15.08844052,0.0001309,53.2165,164.7835,101.6011,258.5128,0.0003366,5.074e-05,0.0,0 STARLINK-3776,1 52288U 22041AD  23267.94003532  .00005074  00000-0  33660-3 0  9997,2 52288  53.2165 164.7835 0001309 101.6011 258.5128 15.08844052 79123,6917.868,95.437,540.639,538.827,0.0
52288.0,STARLINK-3776,PAYLOAD,2023-09-25 09:41:20,15.08858369,0.0001342,53.2164,162.7042,88.1774,271.9372,0.00087372,0.00013652,0.0,0 STARLINK-3776,1 52288U 22041AD  23268.40371270  .00013652  00000-0  87372-3 0  9996,2 52288  53.2164 162.7042 0001342  88.1774 271.9372 15.08858369 79195,6917.824,95.436,540.618,538.761,0.0
52288.0,STARLINK-3776,PAYLOAD,2023-09-25 20:49:02,15.08849575,0.0001387,53.217,160.6246,96.9594,263.1556,0.00025563,3.784e-05,0.0,0 STARLINK-3776,1 52288U 22041AD  23268.86739155  .00003784  00000-0  25563-3 0  9995,2 52288  53.2170 160.6246 0001387  96.9594 263.1556 15.08849575 80481,6917.851,95.437,540.676,538.757,0.0
52288.0,STARLINK-3776,PAYLOAD,2023-09-25 22:24:25,15.08849406,0.0001361,53.2171,160.328,94.9285,265.1863,0.00027332,4.066e-05,0.0,0 STARLINK-3776,1 52288U 22041AD  23268.93363081  .00004066  00000-0  27332-3 0  9994,2 52288  53.2171 160.3280 0001361  94.9285 265.1863 15.08849406 79275,6917.852,95.437,540.658,538.775,0.0
52288.0,STARLINK-3776,PAYLOAD,2023-09-25 23:59:48,15.08852517,0.0001381,53.2173,160.0312,91.5832,268.5319,0.00027502,4.093e-05,0.0,0 STARLINK-3776,1 52288U 22041AD  23268.99986890  .00004093  00000-0  27502-3 0  9998,2 52288  53.2173 160.0312 0001381  91.5832 268.5319 15.08852517 79284,6917.842,95.437,540.662,538.752,0.0
52288.0,STARLINK-3776,PAYLOAD,2023-09-26 17:29:04,15.08829001,0.000139,53.2162,156.7578,95.8764,264.2387,-0.00015276,-2.718e-05,0.0,0 STARLINK-3776,1 52288U 22041AD  23269.72852135 -.00002718  00000-0 -15276-3 0  9993,2 52288  53.2162 156.7578 0001390  95.8764 264.2387 15.08829001 80618,6917.914,95.438,540.741,538.817,0.0
52288.0,STARLINK-3776,PAYLOAD,2023-09-26 20:39:50,15.08826657,0.0001455,53.2163,156.1633,97.1524,262.9634,-0.00018357,-3.207e-05,0.0,0 STARLINK-3776,1 52288U 22041AD  23269.86100227 -.00003207  00000-0 -18357-3 0  9993,2 52288  53.2163 156.1633 0001455  97.1524 262.9634 15.08826657 79416,6917.921,95.438,540.793,538.78,0.0
52288.0,STARLINK-3776,PAYLOAD,2023-09-27 09:22:56,15.08829096,0.000146,53.2166,153.7818,96.4128,263.703,4.8427e-05,4.83e-06,0.0,0 STARLINK-3776,1 52288U 22041AD  23270.39092746  .00000483  00000-0  48427-4 0  9992,2 52288  53.2166 153.7818 0001460  96.4128 263.7030 15.08829096 79492,6917.914,95.438,540.789,538.769,0.0
52288.0,STARLINK-3776,PAYLOAD,2023-09-27 20:30:38,15.08826431,0.0001543,53.2168,151.7017,92.2802,267.8366,0.00011315,1.513e-05,0.0,0 STARLINK-3776,1 52288U 22041AD  23270.85461271  .00001513  00000-0  11315-3 0  9996,2 52288  53.2168 151.7017 0001543  92.2802 267.8366 15.08826431 80789,6917.922,95.438,540.854,538.719,0.0
52288.0,STARLINK-3776,PAYLOAD,2023-09-27 23:41:24,15.08831491,0.0001633,53.2165,151.107,102.9591,257.1584,9.3193e-05,1.195e-05,0.0,0 STARLINK-3776,1 52288U 22041AD  23270.98709163  .00001195  00000-0  93193-4 0  9996,2 52288  53.2165 151.1070 0001633 102.9591 257.1584 15.08831491 79585,6917.906,95.438,540.901,538.642,0.0
52288.0,STARLINK-3776,PAYLOAD,2023-09-28 21:56:48,15.08847534,0.0001594,53.2163,146.9455,92.5009,267.6166,0.0003877,5.889e-05,0.0,0 STARLINK-3776,1 52288U 22041AD  23271.91445075  .00005889  00000-0  38770-3 0  9992,2 52288  53.2163 146.9455 0001594  92.5009 267.6166 15.08847534 79729,6917.857,95.437,540.825,538.62,0.0
52288.0,STARLINK-3776,PAYLOAD,2023-09-29 23:22:58,15.08852895,0.0001533,53.2153,142.1886,85.2619,274.8548,0.00025449,3.766e-05,0.0,0 STARLINK-3776,1 52288U 22041AD  23272.97428565  .00003766  00000-0  25449-3 0  9995,2 52288  53.2153 142.1886 0001533  85.2619 274.8548 15.08852895 81108,6917.841,95.437,540.766,538.645,0.0
52288.0,STARLINK-3776,PAYLOAD,2023-09-30 18:27:35,15.08841423,0.0001475,53.2153,138.6177,103.8559,256.2598,-4.5222e-05,-1.008e-05,0.0,0 STARLINK-3776,1 52288U 22041AD  23273.76916624 -.00001008  00000-0 -45222-4 0  9992,2 52288  53.2153 138.6177 0001475 103.8559 256.2598 15.08841423 81223,6917.876,95.437,540.761,538.721,0.0
52288.0,STARLINK-3776,PAYLOAD,2023-10-01 00:49:08,15.08845922,0.0001615,53.2157,137.4274,108.7871,251.3296,4.3123e-05,3.98e-06,0.0,0 STARLINK-3776,1 52288U 22041AD  23274.03412503  .00000398  00000-0  43123-4 0  9997,2 52288  53.2157 137.4274 0001615 108.7871 251.3296 15.08845922 80047,6917.862,95.437,540.845,538.61,0.0
52288.0,STARLINK-3776,PAYLOAD,2023-10-01 21:29:08,15.08851949,0.000109,53.2147,133.5615,95.9963,264.1154,0.00024849,3.67e-05,0.0,0 STARLINK-3776,1 52288U 22041AD  23274.89524128  .00003670  00000-0  24849-3 0  9997,2 52288  53.2147 133.5615 0001090  95.9963 264.1154 15.08851949 80173,6917.844,95.437,540.463,538.955,0.0
52288.0,STARLINK-3776,PAYLOAD,2023-10-02 21:19:56,15.08840763,0.0001281,53.214,129.1007,93.2448,266.8691,0.00010921,1.451e-05,0.0,0 STARLINK-3776,1 52288U 22041AD  23275.88884694  .00001451  00000-0  10921-3 0  9995,2 52288  53.2140 129.1007 0001281  93.2448 266.8691 15.08840763 81542,6917.878,95.438,540.629,538.857,0.0
52288.0,STARLINK-3776,PAYLOAD,2023-10-03 06:52:15,15.08839087,0.0001276,53.2147,127.3163,91.2682,268.8456,2.8142e-05,1.6e-06,0.0,0 STARLINK-3776,1 52288U 22041AD  23276.28628699  .00000160  00000-0  28142-4 0  9992,2 52288  53.2147 127.3163 0001276  91.2682 268.8456 15.08839087 80383,6917.883,95.438,540.631,538.865,0.0
52288.0,STARLINK-3776,PAYLOAD,2023-10-03 21:10:43,15.0884068,0.0001253,53.2153,124.6411,87.2576,272.8559,-2.5992e-06,-3.29e-06,0.0,0 STARLINK-3776,1 52288U 22041AD  23276.88244824 -.00000329  00000-0 -25992-5 0  9992,2 52288  53.2153 124.6411 0001253  87.2576 272.8559 15.08840680 80478,6917.878,95.438,540.61,538.877,0.0
52288.0,STARLINK-3776,PAYLOAD,2023-10-04 00:21:29,15.08843986,0.0001365,53.2159,124.0458,88.9927,271.1221,3.2457e-05,2.29e-06,0.0,0 STARLINK-3776,1 52288U 22041AD  23277.01492552  .00000229  00000-0  32457-4 0  9991,2 52288  53.2159 124.0458 0001365  88.9927 271.1221 15.08843986 81719,6917.868,95.437,540.677,538.789,0.0
52288.0,STARLINK-3776,PAYLOAD,2023-10-04 21:01:30,15.08849671,0.0001409,53.2163,120.1801,83.9716,276.1437,0.00027392,4.075e-05,0.0,0 STARLINK-3776,1 52288U 22041AD  23277.87604457  .00004075  00000-0  27392-3 0  9998,2 52288  53.2163 120.1801 0001409  83.9716 276.1437 15.08849671 80623,6917.851,95.437,540.691,538.741,0.0
52288.0,STARLINK-3776,PAYLOAD,2023-10-05 06:33:49,15.08845623,0.0001365,53.2153,118.3953,84.6353,275.4795,0.00015623,2.2e-05,0.0,0 STARLINK-3776,1 52288U 22041AD  23278.27348463  .00002200  00000-0  15623-3 0  9997,2 52288  53.2153 118.3953 0001365  84.6353 275.4795 15.08845623 81909,6917.863,95.437,540.672,538.784,0.0
52288.0,STARLINK-3776,PAYLOAD,2023-10-05 20:52:17,15.08842143,0.00016,53.2162,115.7194,79.9736,280.1436,4.5395e-05,4.35e-06,0.0,0 STARLINK-3776,1 52288U 22041AD  23278.86964864  .00000435  00000-0  45395-4 0  9999,2 52288  53.2162 115.7194 0001600  79.9736 280.1436 15.08842143 81999,6917.874,95.437,540.846,538.632,0.0
